[{"OBJECT_NAME":"ONEWEB-0411","OBJECT_ID":"2022-012B","EPOCH":"2026-01-15T03:29:12.204960","MEAN_MOTION":13.10369203,"ECCENTRICITY":0.000141,"INCLINATION":87.8769,"RA_OF_ASC_NODE":66.7718,"ARG_OF_PERICENTER":115.7977,"MEAN_ANOMALY":244.3296,"EPHEMERIS_TYPE":0,"CLASSIFICATION_TYPE":"U","NORAD_CAT_ID":51623,"ELEMENT_SET_NO":999,"REV_AT_EPOCH":18924,"BSTAR":0.00014775,"MEAN_MOTION_DOT":6.4e-7,"MEAN_MOTION_DDOT":0},{"OBJECT_NAME":"ONEWEB-0415","OBJECT_ID":"2022-012C","EPOCH":"2026-01-15T03:24:26.330688","MEAN_MOTION":13.10370974,"ECCENTRICITY":0.0001619,"INCLINATION":87.877,"RA_OF_ASC_NODE":66.7748,"ARG_OF_PERICENTER":108.5342,"MEAN_ANOMALY":251.5962,"EPHEMERIS_TYPE":0,"CLASSIFICATION_TYPE":"U","NORAD_CAT_ID":51624,"ELEMENT_SET_NO":999,"REV_AT_EPOCH":18924,"BSTAR":0.00070644,"MEAN_MOTION_DOT":2.59e-6,"MEAN_MOTION_DDOT":0},{"OBJECT_NAME":"ONEWEB-0416","OBJECT_ID":"2022-012D","EPOCH":"2026-01-15T01:51:12.145824","MEAN_MOTION":13.10371166,"ECCENTRICITY":0.0001883,"INCLINATION":87.8771,"RA_OF_ASC_NODE":66.8087,"ARG_OF_PERICENTER":115.0205,"MEAN_ANOMALY":245.1118,"EPHEMERIS_TYPE":0,"CLASSIFICATION_TYPE":"U","NORAD_CAT_ID":51625,"ELEMENT_SET_NO":999,"REV_AT_EPOCH":18927,"BSTAR":-0.0010396,"MEAN_MOTION_DOT":-3.5e-6,"MEAN_MOTION_DDOT":0},{"OBJECT_NAME":"ONEWEB-0422","OBJECT_ID":"2022-012E","EPOCH":"2026-01-15T01:32:23.300448","MEAN_MOTION":13.17648974,"ECCENTRICITY":0.0001483,"INCLINATION":87.9094,"RA_OF_ASC_NODE":36.2822,"ARG_OF_PERICENTER":70.5506,"MEAN_ANOMALY":289.5786,"EPHEMERIS_TYPE":0,"CLASSIFICATION_TYPE":"U","NORAD_CAT_ID":51626,"ELEMENT_SET_NO":999,"REV_AT_EPOCH":19364,"BSTAR":0.00011756,"MEAN_MOTION_DOT":5.9e-7,"MEAN_MOTION_DDOT":0},{"OBJECT_NAME":"ONEWEB-0423","OBJECT_ID":"2022-012F","EPOCH":"2026-01-15T01:22:39.664992","MEAN_MOTION":13.17650567,"ECCENTRICITY":0.0001827,"INCLINATION":87.9094,"RA_OF_ASC_NODE":36.2933,"ARG_OF_PERICENTER":88.7793,"MEAN_ANOMALY":271.3548,"EPHEMERIS_TYPE":0,"CLASSIFICATION_TYPE":"U","NORAD_CAT_ID":51627,"ELEMENT_SET_NO":999,"REV_AT_EPOCH":19353,"BSTAR":7.4914e-6,"MEAN_MOTION_DOT":1.6e-7,"MEAN_MOTION_DDOT":0},{"OBJECT_NAME":"ONEWEB-0425","OBJECT_ID":"2022-012G","EPOCH":"2026-01-15T02:05:32.393472","MEAN_MOTION":13.10372999,"ECCENTRICITY":0.0002179,"INCLINATION":87.8783,"RA_OF_ASC_NODE":66.7809,"ARG_OF_PERICENTER":98.992,"MEAN_ANOMALY":261.1454,"EPHEMERIS_TYPE":0,"CLASSIFICATION_TYPE":"U","NORAD_CAT_ID":51628,"ELEMENT_SET_NO":999,"REV_AT_EPOCH":18927,"BSTAR":-0.0017511,"MEAN_MOTION_DOT":-5.99e-6,"MEAN_MOTION_DDOT":0},{"OBJECT_NAME":"ONEWEB-0428","OBJECT_ID":"2022-012H","EPOCH":"2026-01-15T03:26:49.595712","MEAN_MOTION":13.10370473,"ECCENTRICITY":0.0001772,"INCLINATION":87.8772,"RA_OF_ASC_NODE":66.7854,"ARG_OF_PERICENTER":97.9915,"MEAN_ANOMALY":262.1413,"EPHEMERIS_TYPE":0,"CLASSIFICATION_TYPE":"U","NORAD_CAT_ID":51629,"ELEMENT_SET_NO":999,"REV_AT_EPOCH":18924,"BSTAR":0.00033334,"MEAN_MOTION_DOT":1.29e-6,"MEAN_MOTION_DDOT":0},{"OBJECT_NAME":"ONEWEB-0431","OBJECT_ID":"2022-012J","EPOCH":"2026-01-15T02:43:36.137280","MEAN_MOTION":13.10375499,"ECCENTRICITY":0.0001205,"INCLINATION":87.8787,"RA_OF_ASC_NODE":66.7735,"ARG_OF_PERICENTER":113.4428,"MEAN_ANOMALY":246.6826,"EPHEMERIS_TYPE":0,"CLASSIFICATION_TYPE":"U","NORAD_CAT_ID":51630,"ELEMENT_SET_NO":999,"REV_AT_EPOCH":18929,"BSTAR":0.0011172,"MEAN_MOTION_DOT":4.03e-6,"MEAN_MOTION_DDOT":0},{"OBJECT_NAME":"ONEWEB-0434","OBJECT_ID":"2022-012K","EPOCH":"2026-01-15T02:10:31.296000","MEAN_MOTION":13.10374155,"ECCENTRICITY":0.0002472,"INCLINATION":87.8773,"RA_OF_ASC_NODE":66.8112,"ARG_OF_PERICENTER":96.2766,"MEAN_ANOMALY":263.8643,"EPHEMERIS_TYPE":0,"CLASSIFICATION_TYPE":"U","NORAD_CAT_ID":51631,"ELEMENT_SET_NO":999,"REV_AT_EPOCH":18927,"BSTAR":-0.0016927,"MEAN_MOTION_DOT":-5.78e-6,"MEAN_MOTION_DDOT":0},{"OBJECT_NAME":"ONEWEB-0435","OBJECT_ID":"2022-012L","EPOCH":"2026-01-15T02:22:16.559328","MEAN_MOTION":13.10375343,"ECCENTRICITY":0.0001542,"INCLINATION":87.8779,"RA_OF_ASC_NODE":66.8001,"ARG_OF_PERICENTER":87.9981,"MEAN_ANOMALY":272.1323,"EPHEMERIS_TYPE":0,"CLASSIFICATION_TYPE":"U","NORAD_CAT_ID":51632,"ELEMENT_SET_NO":999,"REV_AT_EPOCH":18926,"BSTAR":-0.0011904,"MEAN_MOTION_DOT":-4.03e-6,"MEAN_MOTION_DDOT":0},{"OBJECT_NAME":"ONEWEB-0436","OBJECT_ID":"2022-012M","EPOCH":"2026-01-15T02:59:51.406656","MEAN_MOTION":13.17650748,"ECCENTRICITY":0.000158,"INCLINATION":87.9094,"RA_OF_ASC_NODE":36.2583,"ARG_OF_PERICENTER":89.0956,"MEAN_ANOMALY":271.0357,"EPHEMERIS_TYPE":0,"CLASSIFICATION_TYPE":"U","NORAD_CAT_ID":51633,"ELEMENT_SET_NO":999,"REV_AT_EPOCH":19352,"BSTAR":8.5194e-5,"MEAN_MOTION_DOT":4.6e-7,"MEAN_MOTION_DDOT":0},{"OBJECT_NAME":"ONEWEB-0438","OBJECT_ID":"2022-012N","EPOCH":"2026-01-15T01:58:22.287360","MEAN_MOTION":13.10371639,"ECCENTRICITY":0.0001977,"INCLINATION":87.877,"RA_OF_ASC_NODE":66.8037,"ARG_OF_PERICENTER":100.3174,"MEAN_ANOMALY":259.8176,"EPHEMERIS_TYPE":0,"CLASSIFICATION_TYPE":"U","NORAD_CAT_ID":51634,"ELEMENT_SET_NO":999,"REV_AT_EPOCH":18929,"BSTAR":-0.0015185,"MEAN_MOTION_DOT":-5.17e-6,"MEAN_MOTION_DDOT":0},{"OBJECT_NAME":"ONEWEB-0439","OBJECT_ID":"2022-012P","EPOCH":"2026-01-15T02:03:08.934048","MEAN_MOTION":13.10372029,"ECCENTRICITY":0.0001814,"INCLINATION":87.8774,"RA_OF_ASC_NODE":66.7923,"ARG_OF_PERICENTER":96.7464,"MEAN_ANOMALY":263.387,"EPHEMERIS_TYPE":0,"CLASSIFICATION_TYPE":"U","NORAD_CAT_ID":51635,"ELEMENT_SET_NO":999,"REV_AT_EPOCH":18927,"BSTAR":-0.0017936,"MEAN_MOTION_DOT":-6.13e-6,"MEAN_MOTION_DDOT":0},{"OBJECT_NAME":"ONEWEB-0442","OBJECT_ID":"2022-012Q","EPOCH":"2026-01-15T02:48:55.145088","MEAN_MOTION":13.17656871,"ECCENTRICITY":0.0002393,"INCLINATION":87.9083,"RA_OF_ASC_NODE":36.3043,"ARG_OF_PERICENTER":101.1649,"MEAN_ANOMALY":258.9751,"EPHEMERIS_TYPE":0,"CLASSIFICATION_TYPE":"U","NORAD_CAT_ID":51636,"ELEMENT_SET_NO":999,"REV_AT_EPOCH":19351,"BSTAR":0.00018015,"MEAN_MOTION_DOT":8.3e-7,"MEAN_MOTION_DDOT":0},{"OBJECT_NAME":"ONEWEB-0443","OBJECT_ID":"2022-012R","EPOCH":"2026-01-15T03:16:52.430016","MEAN_MOTION":13.17649936,"ECCENTRICITY":0.0002074,"INCLINATION":87.9081,"RA_OF_ASC_NODE":36.3041,"ARG_OF_PERICENTER":87.2609,"MEAN_ANOMALY":272.876,"EPHEMERIS_TYPE":0,"CLASSIFICATION_TYPE":"U","NORAD_CAT_ID":51637,"ELEMENT_SET_NO":999,"REV_AT_EPOCH":19356,"BSTAR":5.2137e-6,"MEAN_MOTION_DOT":1.5e-7,"MEAN_MOTION_DDOT":0},{"OBJECT_NAME":"ONEWEB-0444","OBJECT_ID":"2022-012S","EPOCH":"2026-01-15T01:48:48.803904","MEAN_MOTION":13.10370861,"ECCENTRICITY":0.0001802,"INCLINATION":87.877,"RA_OF_ASC_NODE":66.7928,"ARG_OF_PERICENTER":97.9768,"MEAN_ANOMALY":262.1564,"EPHEMERIS_TYPE":0,"CLASSIFICATION_TYPE":"U","NORAD_CAT_ID":51638,"ELEMENT_SET_NO":999,"REV_AT_EPOCH":18928,"BSTAR":-0.00085842,"MEAN_MOTION_DOT":-2.87e-6,"MEAN_MOTION_DDOT":0},{"OBJECT_NAME":"ONEWEB-0445","OBJECT_ID":"2022-012T","EPOCH":"2026-01-15T02:19:52.548672","MEAN_MOTION":13.1037442,"ECCENTRICITY":0.000186,"INCLINATION":87.8795,"RA_OF_ASC_NODE":66.7612,"ARG_OF_PERICENTER":106.323,"MEAN_ANOMALY":253.8102,"EPHEMERIS_TYPE":0,"CLASSIFICATION_TYPE":"U","NORAD_CAT_ID":51639,"ELEMENT_SET_NO":999,"REV_AT_EPOCH":18929,"BSTAR":-0.0013687,"MEAN_MOTION_DOT":-4.65e-6,"MEAN_MOTION_DDOT":0}]
