ONEWEB-0411             
1 51623U 22012B   26015.14528015  .00000064  00000+0  14775-3 0  9990
2 51623  87.8769  66.7718 0001410 115.7977 244.3296 13.10369203189244
ONEWEB-0415             
1 51624U 22012C   26015.14197142  .00000259  00000+0  70644-3 0  9997
2 51624  87.8770  66.7748 0001619 108.5342 251.5962 13.10370974189244
ONEWEB-0416             
1 51625U 22012D   26015.07722391 -.00000350  00000+0 -10396-2 0  9991
2 51625  87.8771  66.8087 0001883 115.0205 245.1118 13.10371166189276
ONEWEB-0422             
1 51626U 22012E   26015.06415857  .00000059  00000+0  11756-3 0  9993
2 51626  87.9094  36.2822 0001483  70.5506 289.5786 13.17648974193649
ONEWEB-0423             
1 51627U 22012F   26015.05740353  .00000016  00000+0  74914-5 0  9995
2 51627  87.9094  36.2933 0001827  88.7793 271.3548 13.17650567193538
ONEWEB-0425             
1 51628U 22012G   26015.08718048 -.00000599  00000+0 -17511-2 0  9990
2 51628  87.8783  66.7809 0002179  98.9920 261.1454 13.10372999189271
ONEWEB-0428             
1 51629U 22012H   26015.14362958  .00000129  00000+0  33334-3 0  9992
2 51629  87.8772  66.7854 0001772  97.9915 262.1413 13.10370473189249
ONEWEB-0431             
1 51630U 22012J   26015.11361270  .00000403  00000+0  11172-2 0  9997
2 51630  87.8787  66.7735 0001205 113.4428 246.6826 13.10375499189292
ONEWEB-0434             
1 51631U 22012K   26015.09064000 -.00000578  00000+0 -16927-2 0  9994
2 51631  87.8773  66.8112 0002472  96.2766 263.8643 13.10374155189272
ONEWEB-0435             
1 51632U 22012L   26015.09880277 -.00000403  00000+0 -11904-2 0  9994
2 51632  87.8779  66.8001 0001542  87.9981 272.1323 13.10375343189266
ONEWEB-0436             
1 51633U 22012M   26015.12490054  .00000046  00000+0  85194-4 0  9994
2 51633  87.9094  36.2583 0001580  89.0956 271.0357 13.17650748193522
ONEWEB-0438             
1 51634U 22012N   26015.08220240 -.00000517  00000+0 -15185-2 0  9994
2 51634  87.8770  66.8037 0001977 100.3174 259.8176 13.10371639189299
ONEWEB-0439             
1 51635U 22012P   26015.08552007 -.00000613  00000+0 -17936-2 0  9997
2 51635  87.8774  66.7923 0001814  96.7464 263.3870 13.10372029189270
ONEWEB-0442             
1 51636U 22012Q   26015.11730492  .00000083  00000+0  18015-3 0  9997
2 51636  87.9083  36.3043 0002393 101.1649 258.9751 13.17656871193517
ONEWEB-0443             
1 51637U 22012R   26015.13671794  .00000015  00000+0  52137-5 0  9999
2 51637  87.9081  36.3041 0002074  87.2609 272.8760 13.17649936193564
ONEWEB-0444             
1 51638U 22012S   26015.07556486 -.00000287  00000+0 -85842-3 0  9993
2 51638  87.8770  66.7928 0001802  97.9768 262.1564 13.10370861189281
ONEWEB-0445             
1 51639U 22012T   26015.09713598 -.00000465  00000+0 -13687-2 0  9990
2 51639  87.8795  66.7612 0001860 106.3230 253.8102 13.10374420189293
